1
1 29486U 06042A   19272.00430744 -.00000001  00000-0  00000+0 0  9995
2 29486  54.9590 248.8813 0093935   0.5082  31.6022  2.00560148 95342
2
1 27663U 03005A   19272.09385061 -.00000030  00000-0  00000+0 0  9998
2 27663  56.2455 312.2850 0106625  32.1585 330.1378  2.00567379122108
3
1 27663U 03005A   19272.09385061 -.00000030  00000-0  00000+0 0  9998
2 27663  56.2455 312.2850 0106625  32.1585 330.1378  2.00567379122108
4
1 24876U 97035A   19272.18807153  .00000003  00000-0  00000+0 0  9997
2 24876  55.4568 194.4010 0036176  67.5612 292.8340  2.00563944162551
5
1 38833U 12053A   19272.31629780 -.00000004  00000-0  00000+0 0  9997
2 38833  53.7378 244.1349 0086285  33.5442 326.9658  2.00559943 51133
6
1 25030U 97067A   19272.33803917  .00000001  00000-0  00000+0 0  9994
2 25030  56.0213 256.2534 0190156 231.6008 293.5417  2.00516989160455
7
1 26690U 01004A   19272.35974556  .00000032  00000-0  00000+0 0  9997
2 26690  53.2943 123.9467 0001296 356.1546 182.7140  1.91595261136520
8
1 39741U 14026A   19272.45032143 -.00000030  00000-0  00000+0 0  9993
2 39741  55.9700  67.1394 0016102 289.8941  69.9389  2.00564685 39320
9
1 20959U 90103A   19272.48391087 +.00000035 +00000-0 +00000-0 0  9997
2 20959 054.4426 136.9451 0017876 042.7358 317.5074 01.88156272209715
10
1 32384U 07062A   19272.48624791 -.00000087  00000-0  00000+0 0  9992
2 32384  56.4834  11.0588 0009646 122.0956 203.3162  2.00562300 86374
11
1 32384U 07062A   19272.48624791 -.00000087  00000-0  00000+0 0  9992
2 32384  56.4834  11.0588 0009646 122.0956 203.3162  2.00562300 86374
12
1 28474U 04045A   19272.50293218 -.00000038  00000-0  00000+0 0  9990
2 28474  54.7934  63.5258 0194068 261.9012 100.0304  2.00578637109238
13
1 22231U 92079A   19272.53710043 +.00000004 +00000-0 +00000-0 0  9995
2 22231 055.1771 198.1532 0032550 313.3900 046.3442 01.89107504015768
14
1 40534U 15013A   19272.55094475 -.00000032  00000-0  00000+0 0  9991
2 40534  54.4286 305.6404 0039273   3.5376 356.5465  2.00563196 33065
15
1 40534U 15013A   19272.55094569 -.00000032 +00000-0 +00000-0 0  9996
2 40534 054.4286 305.6405 0039258 003.5533 356.5309 02.00563180032636
16
1 35752U 09043A   19272.59462258  .00000032  00000-0  00000+0 0  9994
2 35752  54.4690 125.6613 0057421  43.7292 316.6570  2.00551811 74149
17
1 35752U 09043A   19272.59462258  .00000032  00000-0  00000+0 0  9994
2 35752  54.4690 125.6613 0057421  43.7292 316.6570  2.00551811 74149
18
1 35752U 09043A   19272.59462258  .00000032  00000-0  00000+0 0  9994
2 35752  54.4690 125.6613 0057421  43.7292 316.6570  2.00551811 74149
19
1 35752U 09043A   19272.59462258  .00000032  00000-0  00000+0 0  9994
2 35752  54.4690 125.6613 0057421  43.7292 316.6570  2.00551811 74149
20
1 35752U 09043A   19272.59462258  .00000032  00000-0  00000+0 0  9994
2 35752  54.4690 125.6613 0057421  43.7292 316.6570  2.00551811 74149
21
1 26605U 00071A   19272.69514253 +.00000007 +00000-0 +00000-0 0  9990
2 26605 055.0312 191.7874 0109855 249.7786 332.1308 02.00554402138357
22
1 26605U 00071A   19272.69514253  .00000007  00000-0  00000+0 0  9999
2 26605  55.0312 191.7874 0109855 249.7786 332.1308  2.00554402138346
23
1 28474U 04045A   19272.75033867 -.00000040 +00000-0 +00000-0 0  9993
2 28474 054.7936 063.5158 0194091 261.9054 278.6796 02.00578618109248
24
1 41019U 15062A   19272.76047173  .00000032  00000-0  00000+0 0  9999
2 41019  55.2204 127.1099 0049663 205.3918 154.4583  2.00564610 28644
25
1 26407U 00040A   19272.76359852 -.00000037 +00000-0 +00000-0 0  9990
2 26407 056.1862 312.4812 0193416 276.6305 083.5227 02.00559992140769
26
1 38833U 12053A   19272.81488285 -.00000003  00000-0  00000+0 0  9994
2 38833  53.7377 244.1143 0086298  33.5504 326.9594  2.00559949 51143
27
1 38833U 12053A   19272.81488285 -.00000003 +00000-0 +00000-0 0  9995
2 38833 053.7377 244.1143 0086298 033.5504 326.9594 02.00559949050366
28
1 28129U 03058A   19272.88447774  .00000024  00000-0  00000+0 0  9993
2 28129  53.1966 122.8369 0071095 286.1149  73.1942  2.00560713115612
29
1 40294U 14068A   19272.91473815  .00000031  00000-0  00000+0 0  9990
2 40294  55.2208 127.2854 0023982  39.2856 320.9842  2.00560124 36006
30
1 40294U 14068A   19272.91473815  .00000031  00000-0  00000+0 0  9990
2 40294  55.2208 127.2854 0023982  39.2856 320.9842  2.00560124 36006
31
1 29486U 06042A   19272.95201061 -.00000000  00000-0  00000+0 0  9996
2 29486  54.9587 248.8433 0093968   0.5417 355.8484  2.00560077 95359
